CTC2_L_00540001-01
1 42302U 26131KD  26037.47798611  .00000000  00000+0  00000-0 0  9994
2 42302  97.8000   0.0000 0000000   0.0000   0.0000 14.89338779    17
CTC2_L_00540001-02
1 42303U 26158TC  26037.47798611  .00000000  00000+0  00000-0 0  9994
2 42303  97.8000   0.0000 0000000   0.0000 180.0000 14.89338779    17
CTC2_L_00540002-01
1 42304U 26914KZ  26037.47798611  .00000000  00000+0  00000-0 0  9995
2 42304  97.8000   3.0000 0000000   0.0000   6.0000 14.89338779    18
CTC2_L_00540002-02
1 42305U 24812GL  26037.47798611  .00000000  00000+0  00000-0 0  9991
2 42305  97.8000   3.0000 0000000   0.0000 186.0000 14.89338779    18
CTC2_L_00540003-01
1 42306U 25870SA  26037.47798611  .00000000  00000+0  00000-0 0  9997
2 42306  97.8000   6.0000 0000000   0.0000  12.0000 14.89338779    10
CTC2_L_00540003-02
1 42307U 24597CE  26037.47798611  .00000000  00000+0  00000-0 0  9993
2 42307  97.8000   6.0000 0000000   0.0000 192.0000 14.89338779    10
CTC2_L_00540004-01
1 42308U 24851SN  26037.47798611  .00000000  00000+0  00000-0 0  9997
2 42308  97.8000   9.0000 0000000   0.0000  18.0000 14.89338779    11
CTC2_L_00540004-02
1 42309U 26993GV  26037.47798611  .00000000  00000+0  00000-0 0  9997
2 42309  97.8000   9.0000 0000000   0.0000 198.0000 14.89338779    11
CTC2_L_00540005-01
1 42310U 26199HS  26037.47798611  .00000000  00000+0  00000-0 0  9997
2 42310  97.8000  12.0000 0000000   0.0000  24.0000 14.89338779    15
CTC2_L_00540005-02
1 42311U 22890WK  26037.47798611  .00000000  00000+0  00000-0 0  9992
2 42311  97.8000  12.0000 0000000   0.0000 204.0000 14.89338779    16
CTC2_L_00540006-01
1 42312U 23656GX  26037.47798611  .00000000  00000+0  00000-0 0  9994
2 42312  97.8000  15.0000 0000000   0.0000  30.0000 14.89338779    17
CTC2_L_00540006-02
1 42313U 23258ED  26037.47798611  .00000000  00000+0  00000-0 0  9993
2 42313  97.8000  15.0000 0000000   0.0000 210.0000 14.89338779    18
CTC2_L_00540007-01
1 42314U 26728XT  26037.47798611  .00000000  00000+0  00000-0 0  9999
2 42314  97.8000  18.0000 0000000   0.0000  36.0000 14.89338779    18
CTC2_L_00540007-02
1 42315U 22964RI  26037.47798611  .00000000  00000+0  00000-0 0  9998
2 42315  97.8000  18.0000 0000000   0.0000 216.0000 14.89338779    19
CTC2_L_00540008-01
1 42316U 22282LJ  26037.47798611  .00000000  00000+0  00000-0 0  9992
2 42316  97.8000  21.0000 0000000   0.0000  42.0000 14.89338779    11
CTC2_L_00540008-02
1 42317U 24324CQ  26037.47798611  .00000000  00000+0  00000-0 0  9992
2 42317  97.8000  21.0000 0000000   0.0000 222.0000 14.89338779    12
CTC2_L_00540009-01
1 42318U 25144PX  26037.47798611  .00000000  00000+0  00000-0 0  9994
2 42318  97.8000  24.0000 0000000   0.0000  48.0000 14.89338779    12
CTC2_L_00540009-02
1 42319U 22538NF  26037.47798611  .00000000  00000+0  00000-0 0  9999
2 42319  97.8000  24.0000 0000000   0.0000 228.0000 14.89338779    13
CTC2_L_00540010-01
1 42320U 24253FZ  26037.47798611  .00000000  00000+0  00000-0 0  9997
2 42320  97.8000  27.0000 0000000   0.0000  54.0000 14.89338779    15
CTC2_L_00540010-02
1 42321U 23413FO  26037.47798611  .00000000  00000+0  00000-0 0  9995
2 42321  97.8000  27.0000 0000000   0.0000 234.0000 14.89338779    16
CTC2_L_00540011-01
1 42322U 24722XB  26037.47798611  .00000000  00000+0  00000-0 0  9990
2 42322  97.8000  30.0000 0000000   0.0000  60.0000 14.89338779    18
CTC2_L_00540011-02
1 42323U 25384JL  26037.47798611  .00000000  00000+0  00000-0 0  9996
2 42323  97.8000  30.0000 0000000   0.0000 240.0000 14.89338779    19
CTC2_L_00540012-01
1 42324U 26493ZH  26037.47798611  .00000000  00000+0  00000-0 0  9999
2 42324  97.8000  33.0000 0000000   0.0000  66.0000 14.89338779    19
CTC2_L_00540012-02
1 42325U 23863AU  26037.47798611  .00000000  00000+0  00000-0 0  9998
2 42325  97.8000  33.0000 0000000   0.0000 246.0000 14.89338779    10
CTC2_L_00540013-01
1 42326U 22642RR  26037.47798611  .00000000  00000+0  00000-0 0  9993
2 42326  97.8000  36.0000 0000000   0.0000  72.0000 14.89338779    11
CTC2_L_00540013-02
1 42327U 24490GM  26037.47798611  .00000000  00000+0  00000-0 0  9997
2 42327  97.8000  36.0000 0000000   0.0000 252.0000 14.89338779    12
CTC2_L_00540014-01
1 42328U 23365FP  26037.47798611  .00000000  00000+0  00000-0 0  9998
2 42328  97.8000  39.0000 0000000   0.0000  78.0000 14.89338779    12
CTC2_L_00540014-02
1 42329U 22483UM  26037.47798611  .00000000  00000+0  00000-0 0  9999
2 42329  97.8000  39.0000 0000000   0.0000 258.0000 14.89338779    13
CTC2_L_00540015-01
1 42330U 23516ZC  26037.47798611  .00000000  00000+0  00000-0 0  9999
2 42330  97.8000  42.0000 0000000   0.0000  84.0000 14.89338779    16
CTC2_L_00540015-02
1 42331U 25246XW  26037.47798611  .00000000  00000+0  00000-0 0  9992
2 42331  97.8000  42.0000 0000000   0.0000 264.0000 14.89338779    17
CTC2_L_00540016-01
1 42332U 25525QR  26037.47798611  .00000000  00000+0  00000-0 0  9993
2 42332  97.8000  45.0000 0000000   0.0000  90.0000 14.89338779    18
CTC2_L_00540016-02
1 42333U 26591SB  26037.47798611  .00000000  00000+0  00000-0 0  9998
2 42333  97.8000  45.0000 0000000   0.0000 270.0000 14.89338779    19
CTC2_L_00540017-01
1 42334U 26912PT  26037.47798611  .00000000  00000+0  00000-0 0  9996
2 42334  97.8000  48.0000 0000000   0.0000  96.0000 14.89338779    19
CTC2_L_00540017-02
1 42335U 22875YW  26037.47798611  .00000000  00000+0  00000-0 0  9991
2 42335  97.8000  48.0000 0000000   0.0000 276.0000 14.89338779    10
CTC2_L_00540018-01
1 42336U 26217WB  26037.47798611  .00000000  00000+0  00000-0 0  9996
2 42336  97.8000  51.0000 0000000   0.0000 102.0000 14.89338779    13
CTC2_L_00540018-02
1 42337U 23542IY  26037.47798611  .00000000  00000+0  00000-0 0  9995
2 42337  97.8000  51.0000 0000000   0.0000 282.0000 14.89338779    13
CTC2_L_00540019-01
1 42338U 24862YL  26037.47798611  .00000000  00000+0  00000-0 0  9992
2 42338  97.8000  54.0000 0000000   0.0000 108.0000 14.89338779    14
CTC2_L_00540019-02
1 42339U 25766ZN  26037.47798611  .00000000  00000+0  00000-0 0  9997
2 42339  97.8000  54.0000 0000000   0.0000 288.0000 14.89338779    14
CTC2_L_00540020-01
1 42340U 25711JW  26037.47798611  .00000000  00000+0  00000-0 0  9999
2 42340  97.8000  57.0000 0000000   0.0000 114.0000 14.89338779    17
CTC2_L_00540020-02
1 42341U 22027HJ  26037.47798611  .00000000  00000+0  00000-0 0  9997
2 42341  97.8000  57.0000 0000000   0.0000 294.0000 14.89338779    17
CTC2_L_00540021-01
1 42342U 24263QQ  26037.47798611  .00000000  00000+0  00000-0 0  9992
2 42342  97.8000  60.0000 0000000   0.0000 120.0000 14.89338779    10
CTC2_L_00540021-02
1 42343U 26648BV  26037.47798611  .00000000  00000+0  00000-0 0  9992
2 42343  97.8000  60.0000 0000000   0.0000 300.0000 14.89338779    11
CTC2_L_00540022-01
1 42344U 22448LH  26037.47798611  .00000000  00000+0  00000-0 0  9997
2 42344  97.8000  63.0000 0000000   0.0000 126.0000 14.89338779    11
CTC2_L_00540022-02
1 42345U 24625LD  26037.47798611  .00000000  00000+0  00000-0 0  9997
2 42345  97.8000  63.0000 0000000   0.0000 306.0000 14.89338779    12
CTC2_L_00540023-01
1 42346U 22697MG  26037.47798611  .00000000  00000+0  00000-0 0  9995
2 42346  97.8000  66.0000 0000000   0.0000 132.0000 14.89338779    13
CTC2_L_00540023-02
1 42347U 26240OC  26037.47798611  .00000000  00000+0  00000-0 0  9994
2 42347  97.8000  66.0000 0000000   0.0000 312.0000 14.89338779    14
CTC2_L_00540024-01
1 42348U 22453QA  26037.47798611  .00000000  00000+0  00000-0 0  9997
2 42348  97.8000  69.0000 0000000   0.0000 138.0000 14.89338779    14
CTC2_L_00540024-02
1 42349U 24884JM  26037.47798611  .00000000  00000+0  00000-0 0  9998
2 42349  97.8000  69.0000 0000000   0.0000 318.0000 14.89338779    15
CTC2_L_00540025-01
1 42350U 25142JE  26037.47798611  .00000000  00000+0  00000-0 0  9998
2 42350  97.8000  72.0000 0000000   0.0000 144.0000 14.89338779    18
CTC2_L_00540025-02
1 42351U 23725QL  26037.47798611  .00000000  00000+0  00000-0 0  9994
2 42351  97.8000  72.0000 0000000   0.0000 324.0000 14.89338779    19
CTC2_L_00540026-01
1 42352U 25896VD  26037.47798611  .00000000  00000+0  00000-0 0  9996
2 42352  97.8000  75.0000 0000000   0.0000 150.0000 14.89338779    10
CTC2_L_00540026-02
1 42353U 26941Y   26037.47798611  .00000000  00000+0  00000-0 0  9999
2 42353  97.8000  75.0000 0000000   0.0000 330.0000 14.89338779    11
CTC2_L_00540027-01
1 42354U 25880XS  26037.47798611  .00000000  00000+0  00000-0 0  9991
2 42354  97.8000  78.0000 0000000   0.0000 156.0000 14.89338779    11
CTC2_L_00540027-02
1 42355U 25642XJ  26037.47798611  .00000000  00000+0  00000-0 0  9998
2 42355  97.8000  78.0000 0000000   0.0000 336.0000 14.89338779    12
CTC2_L_00540028-01
1 42356U 22763WE  26037.47798611  .00000000  00000+0  00000-0 0  9990
2 42356  97.8000  81.0000 0000000   0.0000 162.0000 14.89338779    14
CTC2_L_00540028-02
1 42357U 26958YZ  26037.47798611  .00000000  00000+0  00000-0 0  9991
2 42357  97.8000  81.0000 0000000   0.0000 342.0000 14.89338779    15
CTC2_L_00540029-01
1 42358U 25781ZR  26037.47798611  .00000000  00000+0  00000-0 0  9995
2 42358  97.8000  84.0000 0000000   0.0000 168.0000 14.89338779    15
CTC2_L_00540029-02
1 42359U 24768UU  26037.47798611  .00000000  00000+0  00000-0 0  9990
2 42359  97.8000  84.0000 0000000   0.0000 348.0000 14.89338779    16
CTC2_L_00540030-01
1 42360U 25593AJ  26037.47798611  .00000000  00000+0  00000-0 0  9999
2 42360  97.8000  87.0000 0000000   0.0000 174.0000 14.89338779    18
CTC2_L_00540030-02
1 42361U 24648QX  26037.47798611  .00000000  00000+0  00000-0 0  9990
2 42361  97.8000  87.0000 0000000   0.0000 354.0000 14.89338779    19
CTC2_L_00540031-01
1 42362U 22175KL  26037.47798611  .00000000  00000+0  00000-0 0  9994
2 42362  97.8000  90.0000 0000000   0.0000 180.0000 14.89338779    11
CTC2_L_00540031-02
1 42363U 26355QB  26037.47798611  .00000000  00000+0  00000-0 0  9999
2 42363  97.8000  90.0000 0000000   0.0000   0.0000 14.89338779    13
